Name,Address,Street,City,Province_State,Postal_Code,Country,Distance,Search_Zip
SALON SUGAR/SPA SPICE LAVAL,"1050 BOUL LE CORBUSIER, LAVAL, QC H7N 0A8, Canada",1050 BOUL LE CORBUSIER,LAVAL,QC,H7N 0A8,Canada,0.24 KM,H7N 0A8
CENTRES DE BEAUTE NEWAGE INC,"1655 BOUL DE L AVENIR, LAVAL, QC H7S 2N5, Canada",1655 BOUL DE L AVENIR,LAVAL,QC,H7S 2N5,Canada,1.13 KM,H7N 0A8
AVANTI LE SPA LAVAL,"1432 BOUL SAINT-MARTIN O, LAVAL, QC H7S 1M9, Canada",1432 BOUL SAINT-MARTIN O,LAVAL,QC,H7S 1M9,Canada,1.54 KM,H7N 0A8
CLINIQUE D ESTHETIQUE FLORA,"164 FLEURY OUEST, MONTREAL, QC H3L 1T5, Canada",164 FLEURY OUEST,MONTREAL,QC,H3L 1T5,Canada,4.87 KM,H7N 0A8
BEAUTE ACCORD COIFFURE,"2700 BOUL DE LA CONCORDE E., LAVAL, QC H7E 2B4, Canada",2700 BOUL DE LA CONCORDE E.,LAVAL,QC,H7E 2B4,Canada,5.75 KM,H7N 0A8
INSTITUT BEAUTE OREA,"2014 BOUL RENE-LAENNEC, LAVAL, QC H7M 4J8, Canada",2014 BOUL RENE-LAENNEC,LAVAL,QC,H7M 4J8,Canada,5.91 KM,H7N 0A8
AVANTI LE SPA,"2318 LUCERNE, MONT-ROYAL, QC H3R 2J8, Canada",2318 LUCERNE,MONT-ROYAL,QC,H3R 2J8,Canada,7.5 KM,H7N 0A8
RENNAI,"5401 ROYALMOUNT AVE, MONT-ROYAL, QC H4P 1G9, Canada",5401 ROYALMOUNT AVE,MONT-ROYAL,QC,H4P 1G9,Canada,8.2 KM,H7N 0A8
ESPACE MAWAII,"7548 RUE SAINT-HUBERT, MONTREAL, QC H2R 2N6, Canada",7548 RUE SAINT-HUBERT,MONTREAL,QC,H2R 2N6,Canada,8.54 KM,H7N 0A8
DEAUVILLE,"4048 JEAN TALON O., MONTREAL, QC H4P 1V5, Canada",4048 JEAN TALON O.,MONTREAL,QC,H4P 1V5,Canada,8.82 KM,H7N 0A8
DAMARA SPA WESTIN,"1 HARBOUR SQ, TORONTO, ON M5J 1A6, Canada",1 HARBOUR SQ,TORONTO,ON,M5J 1A6,Canada,1.7 KM,M5V 3A8
STUDIOS VIS-A-VIS,"780 COLLEGE ST., TORONTO, ON M6G 1C6, Canada",780 COLLEGE ST.,TORONTO,ON,M6G 1C6,Canada,2.24 KM,M5V 3A8
PAULA STARK,"68 SCOLLARD ST (LOWER LEVEL R, TORONTO, ON M5R 1G2, Canada",68 SCOLLARD ST (LOWER LEVEL R,TORONTO,ON,M5R 1G2,Canada,2.72 KM,M5V 3A8
ICI PARIS SKIN CARE CLINIC SPA,"370 DANFORTH AVE., TORONTO, ON M4K 1N8, Canada",370 DANFORTH AVE.,TORONTO,ON,M4K 1N8,Canada,4.75 KM,M5V 3A8
MIDTOWN MED SPA,"567 MOUNTPLEASANT RD, TORONTO, ON M4S 2M5, Canada",567 MOUNTPLEASANT RD,TORONTO,ON,M4S 2M5,Canada,6.19 KM,M5V 3A8
CALIFORNIA SUN SPA LIMITED,"2198-A BLOOR ST WEST, TORONTO, ON M6S 1N4, Canada",2198-A BLOOR ST WEST,TORONTO,ON,M6S 1N4,Canada,6.52 KM,M5V 3A8
RAIN SPA SALON,"384 SHEPPARD AVE.E., TORONTO, ON M2N 3B5, Canada",384 SHEPPARD AVE.E.,TORONTO,ON,M2N 3B5,Canada,13.12 KM,M5V 3A8
CEDARHOUSE SPA,"7-2225 DUNDAS ST E, MISSISSAUGA, ON L4X 1M3, Canada",7-2225 DUNDAS ST E,MISSISSAUGA,ON,L4X 1M3,Canada,13.89 KM,M5V 3A8
THE HUE WELLNESS,"6257 BATHURST ST, NORTH YORK, ON M2R 2A5, Canada",6257 BATHURST ST,NORTH YORK,ON,M2R 2A5,Canada,16.49 KM,M5V 3A8
SCRUPLES SALON & SPA,"5-7600 WESTON RD, WOODBRIDGE, ON L4L 8B7, Canada",5-7600 WESTON RD,WOODBRIDGE,ON,L4L 8B7,Canada,19.9 KM,M5V 3A8
8955310 CANADA INC. (DERMIS AD,"#110-116 ALBERT ST., OTTAWA, ON K1P 5G3, Canada",#110-116 ALBERT ST.,OTTAWA,ON,K1P 5G3,Canada,0.71 KM,K1A 0A9
THIRD AVENUE SPA,"784 BANK ST, OTTAWA, ON K1S 3V6, Canada",784 BANK ST,OTTAWA,ON,K1S 3V6,Canada,2.79 KM,K1A 0A9
PYGMALION SPA C/O FORBES BEAUT,"1000 WELLINGTON ST W, OTTAWA, ON K1Y 2X9, Canada",1000 WELLINGTON ST W,OTTAWA,ON,K1Y 2X9,Canada,2.82 KM,K1A 0A9
RENU MASSAGE THERAPY & SPA,"1432 WELLINGTON ST W, OTTAWA, ON K1Y 2X2, Canada",1432 WELLINGTON ST W,OTTAWA,ON,K1Y 2X2,Canada,4.33 KM,K1A 0A9
WESTBORO SPA,"455 CHURCHILL AVE. NORTH, OTTAWA, ON K1Z 5E1, Canada",455 CHURCHILL AVE. NORTH,OTTAWA,ON,K1Z 5E1,Canada,5.58 KM,K1A 0A9
HUMA SPA,"304-10 ALLEE DE HAMBOURG, GATINEAU, QC J9J 4K1, Canada",304-10 ALLEE DE HAMBOURG,GATINEAU,QC,J9J 4K1,Canada,7.55 KM,K1A 0A9
STUDIO 157,"103-10 ALLEE DE HAMBOURG, GATINEAU, QC J9J 4K1, Canada",103-10 ALLEE DE HAMBOURG,GATINEAU,QC,J9J 4K1,Canada,7.58 KM,K1A 0A9
STUDIO 157 INC.,"348 RUE MAIN, GATINEAU, QC J8P 5K3, Canada",348 RUE MAIN,GATINEAU,QC,J8P 5K3,Canada,8.2 KM,K1A 0A9
OTTAWA DERM CENTRE,"105A-460 WEST HUNT CLUB RD, NEPEAN, ON K2E 0B8, Canada",105A-460 WEST HUNT CLUB RD,NEPEAN,ON,K2E 0B8,Canada,10.29 KM,K1A 0A9
BLUSH & ROSE BEAUTY BAR,"3-100 SHUTTLEWORTH DR, GLOUCESTER, ON K1T 0W7, Canada",3-100 SHUTTLEWORTH DR,GLOUCESTER,ON,K1T 0W7,Canada,14.86 KM,K1A 0A9
